{
  "type": "FeatureCollection",
  "features": [
    {
      "type": "Feature",
      "geometry": {
        "type": "Point",
        "coordinates": [
          -75.6830945,
          45.4344685
        ]
      },
      "properties": {
        "venue_id": "ao-fssp-st-clement-parish-528-old-st-patrick-street-ottawa-on-k1n-5l5-canada",
        "name": "St. Clement Parish",
        "venue_type": "church",
        "country_code": "CA",
        "city": null,
        "community_id": "FSSP",
        "precision": "building",
        "approximate": false,
        "geocoding_source": "OSM_NOMINATIM"
      }
    },
    {
      "type": "Feature",
      "geometry": {
        "type": "Point",
        "coordinates": [
          -113.4659985,
          53.5321631
        ]
      },
      "properties": {
        "venue_id": "ao-fssp-assumption-parish-9034-95-avenue-edmonton-ab-t6c-1z3-canada",
        "name": "Assumption Parish",
        "venue_type": "church",
        "country_code": "CA",
        "city": null,
        "community_id": "FSSP",
        "precision": "building",
        "approximate": false,
        "geocoding_source": "OSM_NOMINATIM"
      }
    },
    {
      "type": "Feature",
      "geometry": {
        "type": "Point",
        "coordinates": [
          -6.4716296,
          52.3347442
        ]
      },
      "properties": {
        "venue_id": "ao-fssp-st-peter-s-college-chapel-summerhill-road-wexford-co-wexford-irlande",
        "name": "St Peter’s College Chapel",
        "venue_type": "chapel",
        "country_code": "IE",
        "city": null,
        "community_id": "FSSP",
        "precision": "building",
        "approximate": false,
        "geocoding_source": "OSM_NOMINATIM"
      }
    },
    {
      "type": "Feature",
      "geometry": {
        "type": "Point",
        "coordinates": [
          -7.1104663,
          52.2574105
        ]
      },
      "properties": {
        "venue_id": "ao-fssp-saint-john-s-church-parnell-st-waterford-city-irlande",
        "name": "Saint John's Church",
        "venue_type": "church",
        "country_code": "IE",
        "city": null,
        "community_id": "FSSP",
        "precision": "building",
        "approximate": false,
        "geocoding_source": "OSM_NOMINATIM"
      }
    },
    {
      "type": "Feature",
      "geometry": {
        "type": "Point",
        "coordinates": [
          15.9670122,
          47.269828
        ]
      },
      "properties": {
        "venue_id": "ao-fssp-wallfahrtskirche-maria-lebing-lindenweg-1-8230-hartberg-osterreich",
        "name": "Wallfahrtskirche Maria Lebing",
        "venue_type": "church",
        "country_code": "AT",
        "city": null,
        "community_id": "FSSP",
        "precision": "building",
        "approximate": false,
        "geocoding_source": "OSM_NOMINATIM"
      }
    },
    {
      "type": "Feature",
      "geometry": {
        "type": "Point",
        "coordinates": [
          15.0616383,
          51.1366514
        ]
      },
      "properties": {
        "venue_id": "ao-fssp-koscio-pw-swietego-franciszka-z-asyzu-jerzmanki-42-59-900-jerzmanki-polska",
        "name": "Kościół pw. Świętego Franciszka z Asyżu",
        "venue_type": "other",
        "country_code": "PL",
        "city": null,
        "community_id": "FSSP",
        "precision": "building",
        "approximate": false,
        "geocoding_source": "OSM_NOMINATIM"
      }
    },
    {
      "type": "Feature",
      "geometry": {
        "type": "Point",
        "coordinates": [
          6.6504689,
          46.5254248
        ]
      },
      "properties": {
        "venue_id": "ao-fssp-chapelle-saint-augustin-78-avenue-de-bethusy-ch-1012-lausanne-suisse",
        "name": "Chapelle Saint-Augustin",
        "venue_type": "chapel",
        "country_code": "CH",
        "city": null,
        "community_id": "FSSP",
        "precision": "building",
        "approximate": false,
        "geocoding_source": "OSM_NOMINATIM"
      }
    },
    {
      "type": "Feature",
      "geometry": {
        "type": "Point",
        "coordinates": [
          -76.8883551,
          40.26301
        ]
      },
      "properties": {
        "venue_id": "ao-fssp-st-lawrence-church-110-state-street-harrisburg-pa-17101-usa",
        "name": "St. Lawrence Church",
        "venue_type": "church",
        "country_code": "US",
        "city": null,
        "community_id": "FSSP",
        "precision": "building",
        "approximate": false,
        "geocoding_source": "OSM_NOMINATIM"
      }
    },
    {
      "type": "Feature",
      "geometry": {
        "type": "Point",
        "coordinates": [
          -76.2649422,
          36.7665071
        ]
      },
      "properties": {
        "venue_id": "ao-fssp-st-benedict-parish-521-mccosh-dr-chesapeake-va-23320-usa",
        "name": "St. Benedict Parish",
        "venue_type": "church",
        "country_code": "US",
        "city": null,
        "community_id": "FSSP",
        "precision": "building",
        "approximate": false,
        "geocoding_source": "OSM_NOMINATIM"
      }
    },
    {
      "type": "Feature",
      "geometry": {
        "type": "Point",
        "coordinates": [
          -93.2582549,
          44.9940771
        ]
      },
      "properties": {
        "venue_id": "ao-fssp-church-of-all-saints-435-4th-st-ne-minneapolis-mn-55413-usa",
        "name": "Church of All Saints",
        "venue_type": "church",
        "country_code": "US",
        "city": null,
        "community_id": "FSSP",
        "precision": "building",
        "approximate": false,
        "geocoding_source": "OSM_NOMINATIM"
      }
    },
    {
      "type": "Feature",
      "geometry": {
        "type": "Point",
        "coordinates": [
          -96.8264263,
          40.7444638
        ]
      },
      "properties": {
        "venue_id": "ao-fssp-our-lady-of-guadalupe-seminary-po-box-147-denton-ne-68339-usa",
        "name": "Our Lady of Guadalupe Seminary",
        "venue_type": "seminary",
        "country_code": "US",
        "city": null,
        "community_id": "FSSP",
        "precision": "building",
        "approximate": false,
        "geocoding_source": "OSM_NOMINATIM"
      }
    },
    {
      "type": "Feature",
      "geometry": {
        "type": "Point",
        "coordinates": [
          -96.8264263,
          40.7444638
        ]
      },
      "properties": {
        "venue_id": "ao-fssp-our-lady-of-guadalupe-seminary-p-o-box-147-denton-ne-68339-usa",
        "name": "Our Lady of Guadalupe Seminary",
        "venue_type": "seminary",
        "country_code": "US",
        "city": null,
        "community_id": "FSSP",
        "precision": "building",
        "approximate": false,
        "geocoding_source": "OSM_NOMINATIM"
      }
    },
    {
      "type": "Feature",
      "geometry": {
        "type": "Point",
        "coordinates": [
          -96.7039279,
          40.7912549
        ]
      },
      "properties": {
        "venue_id": "ao-fssp-st-francis-of-assisi-church-1145-south-st-lincoln-ne-68502-usa",
        "name": "St. Francis of Assisi Church",
        "venue_type": "church",
        "country_code": "US",
        "city": null,
        "community_id": "FSSP",
        "precision": "building",
        "approximate": false,
        "geocoding_source": "OSM_NOMINATIM"
      }
    },
    {
      "type": "Feature",
      "geometry": {
        "type": "Point",
        "coordinates": [
          -106.483632,
          31.7597646
        ]
      },
      "properties": {
        "venue_id": "ao-fssp-immaculate-conception-church-118-n-campbell-st-el-paso-tx-79901-usa",
        "name": "Immaculate Conception Church",
        "venue_type": "church",
        "country_code": "US",
        "city": null,
        "community_id": "FSSP",
        "precision": "building",
        "approximate": false,
        "geocoding_source": "OSM_NOMINATIM"
      }
    }
  ]
}
