{
  "type": "FeatureCollection",
  "features": [
    {
      "type": "Feature",
      "geometry": {
        "type": "Point",
        "coordinates": [
          0.6171393,
          44.2020982
        ]
      },
      "properties": {
        "venue_id": "ao-research-icksp-federated-v13-icksp-stg-001-agen",
        "name": "Église Notre-Dame-du-Bourg",
        "venue_type": "church",
        "country_code": "FR",
        "city": "Agen",
        "community_id": "ICKSP",
        "precision": "street",
        "geocoding_source": "OSM_NOMINATIM"
      }
    },
    {
      "type": "Feature",
      "geometry": {
        "type": "Point",
        "coordinates": [
          0.6929421,
          44.1674782
        ]
      },
      "properties": {
        "venue_id": "ao-research-icksp-federated-v13-icksp-stg-001-lafox",
        "name": "Chapelle du château de Lafox",
        "venue_type": "chapel",
        "country_code": "FR",
        "city": "Lafox",
        "community_id": "ICKSP",
        "precision": "street",
        "geocoding_source": "OSM_NOMINATIM"
      }
    },
    {
      "type": "Feature",
      "geometry": {
        "type": "Point",
        "coordinates": [
          2.1593556,
          43.8898203
        ]
      },
      "properties": {
        "venue_id": "ao-research-icksp-federated-v13-icksp-stg-002",
        "name": "Église Saint-Genieys",
        "venue_type": "church",
        "country_code": "FR",
        "city": "Puygouzon",
        "community_id": "ICKSP",
        "precision": "address",
        "geocoding_source": "OSM_NOMINATIM"
      }
    },
    {
      "type": "Feature",
      "geometry": {
        "type": "Point",
        "coordinates": [
          -0.1663875,
          44.507143
        ]
      },
      "properties": {
        "venue_id": "ao-research-icksp-federated-v13-icksp-stg-003",
        "name": "Église Saint-Germain",
        "venue_type": "church",
        "country_code": "FR",
        "city": "Auros",
        "community_id": "ICKSP",
        "precision": "building",
        "geocoding_source": "OSM_NOMINATIM"
      }
    },
    {
      "type": "Feature",
      "geometry": {
        "type": "Point",
        "coordinates": [
          2.1084708,
          49.4309113
        ]
      },
      "properties": {
        "venue_id": "ao-research-icksp-federated-v13-icksp-stg-005",
        "name": "Église Notre-Dame-de-l'Assomption",
        "venue_type": "church",
        "country_code": "FR",
        "city": "Beauvais",
        "community_id": "ICKSP",
        "precision": "street",
        "geocoding_source": "OSM_NOMINATIM"
      }
    },
    {
      "type": "Feature",
      "geometry": {
        "type": "Point",
        "coordinates": [
          3.2136879,
          43.3393029
        ]
      },
      "properties": {
        "venue_id": "ao-research-icksp-federated-v13-icksp-stg-006",
        "name": "Église Saint-Jacques",
        "venue_type": "church",
        "country_code": "FR",
        "city": "Béziers",
        "community_id": "ICKSP",
        "precision": "street",
        "geocoding_source": "OSM_NOMINATIM"
      }
    },
    {
      "type": "Feature",
      "geometry": {
        "type": "Point",
        "coordinates": [
          -1.7424536,
          43.3330279
        ]
      },
      "properties": {
        "venue_id": "ao-research-icksp-federated-v13-icksp-stg-007-biriatou",
        "name": "Église Saint-Martin",
        "venue_type": "church",
        "country_code": "FR",
        "city": "Biriatou",
        "community_id": "ICKSP",
        "precision": "building",
        "geocoding_source": "OSM_NOMINATIM"
      }
    },
    {
      "type": "Feature",
      "geometry": {
        "type": "Point",
        "coordinates": [
          -1.4772948,
          43.4905259
        ]
      },
      "properties": {
        "venue_id": "ao-research-icksp-federated-v13-icksp-stg-007-bayonne",
        "name": "Cathédrale Sainte-Marie de Bayonne",
        "venue_type": "church",
        "country_code": "FR",
        "city": "Bayonne",
        "community_id": "ICKSP",
        "precision": "building",
        "geocoding_source": "OSM_NOMINATIM"
      }
    },
    {
      "type": "Feature",
      "geometry": {
        "type": "Point",
        "coordinates": [
          1.4948283,
          45.1680921
        ]
      },
      "properties": {
        "venue_id": "ao-research-icksp-federated-v13-icksp-stg-008",
        "name": "Église Saint-Paul-du-Rivet",
        "venue_type": "church",
        "country_code": "FR",
        "city": "Brive-la-Gaillarde",
        "community_id": "ICKSP",
        "precision": "street",
        "geocoding_source": "OSM_NOMINATIM"
      }
    },
    {
      "type": "Feature",
      "geometry": {
        "type": "Point",
        "coordinates": [
          7.0111899,
          43.5516129
        ]
      },
      "properties": {
        "venue_id": "ao-research-icksp-federated-v13-icksp-stg-009",
        "name": "Chapelle de la Miséricorde",
        "venue_type": "chapel",
        "country_code": "FR",
        "city": "Cannes",
        "community_id": "ICKSP",
        "precision": "street",
        "geocoding_source": "OSM_NOMINATIM"
      }
    },
    {
      "type": "Feature",
      "geometry": {
        "type": "Point",
        "coordinates": [
          2.2437207,
          43.6058318
        ]
      },
      "properties": {
        "venue_id": "ao-research-icksp-federated-v13-icksp-stg-010",
        "name": "Église Saint-Jacques",
        "venue_type": "church",
        "country_code": "FR",
        "city": "Castres",
        "community_id": "ICKSP",
        "precision": "building",
        "geocoding_source": "OSM_NOMINATIM"
      }
    },
    {
      "type": "Feature",
      "geometry": {
        "type": "Point",
        "coordinates": [
          2.8984962,
          50.6531296
        ]
      },
      "properties": {
        "venue_id": "ao-research-icksp-federated-v13-icksp-stg-011",
        "name": "Maison Notre-Dame-de-Fatima",
        "venue_type": "residence",
        "country_code": "FR",
        "city": "La Chapelle-d'Armentières",
        "community_id": "ICKSP",
        "precision": "building",
        "geocoding_source": "OSM_NOMINATIM"
      }
    },
    {
      "type": "Feature",
      "geometry": {
        "type": "Point",
        "coordinates": [
          -0.7033526,
          45.847443
        ]
      },
      "properties": {
        "venue_id": "ao-research-icksp-federated-v13-icksp-stg-012-crazannes",
        "name": "Église Sainte-Madeleine",
        "venue_type": "church",
        "country_code": "FR",
        "city": "Crazannes",
        "community_id": "ICKSP",
        "precision": "building",
        "geocoding_source": "OSM_NOMINATIM"
      }
    },
    {
      "type": "Feature",
      "geometry": {
        "type": "Point",
        "coordinates": [
          5.0161363,
          47.3458843
        ]
      },
      "properties": {
        "venue_id": "ao-research-icksp-federated-v13-icksp-stg-013-fontaine",
        "name": "Basilique de la Maison natale Saint-Bernard",
        "venue_type": "basilica",
        "country_code": "FR",
        "city": "Fontaine-lès-Dijon",
        "community_id": "ICKSP",
        "precision": "street",
        "geocoding_source": "OSM_NOMINATIM"
      }
    },
    {
      "type": "Feature",
      "geometry": {
        "type": "Point",
        "coordinates": [
          5.0452436,
          47.3210428
        ]
      },
      "properties": {
        "venue_id": "ao-research-icksp-federated-v13-icksp-stg-013-standre",
        "name": "Chapelle Saint-André",
        "venue_type": "chapel",
        "country_code": "FR",
        "city": "Dijon",
        "community_id": "ICKSP",
        "precision": "building",
        "geocoding_source": "OSM_NOMINATIM"
      }
    },
    {
      "type": "Feature",
      "geometry": {
        "type": "Point",
        "coordinates": [
          5.0452436,
          47.3210428
        ]
      },
      "properties": {
        "venue_id": "ao-research-icksp-federated-v13-icksp-stg-013-stmichel",
        "name": "Église Saint-Michel",
        "venue_type": "church",
        "country_code": "FR",
        "city": "Dijon",
        "community_id": "ICKSP",
        "precision": "building",
        "geocoding_source": "OSM_NOMINATIM"
      }
    },
    {
      "type": "Feature",
      "geometry": {
        "type": "Point",
        "coordinates": [
          2.0027357,
          44.5131478
        ]
      },
      "properties": {
        "venue_id": "ao-research-icksp-federated-v13-icksp-stg-014",
        "name": "Chapelle Notre-Dame-de-la-Consolation",
        "venue_type": "chapel",
        "country_code": "FR",
        "city": "Foissac",
        "community_id": "ICKSP",
        "precision": "locality",
        "geocoding_source": "OSM_NOMINATIM"
      }
    },
    {
      "type": "Feature",
      "geometry": {
        "type": "Point",
        "coordinates": [
          -1.1766284,
          46.1643965
        ]
      },
      "properties": {
        "venue_id": "ao-research-icksp-federated-v13-icksp-stg-016",
        "name": "Chapelle Saint-Maurice",
        "venue_type": "chapel",
        "country_code": "FR",
        "city": "La Rochelle",
        "community_id": "ICKSP",
        "precision": "address",
        "geocoding_source": "OSM_NOMINATIM"
      }
    },
    {
      "type": "Feature",
      "geometry": {
        "type": "Point",
        "coordinates": [
          3.0600153,
          50.6352247
        ]
      },
      "properties": {
        "venue_id": "ao-research-icksp-federated-v13-icksp-stg-017",
        "name": "Église Saint-Étienne",
        "venue_type": "church",
        "country_code": "FR",
        "city": "Lille",
        "community_id": "ICKSP",
        "precision": "address",
        "geocoding_source": "OSM_NOMINATIM"
      }
    },
    {
      "type": "Feature",
      "geometry": {
        "type": "Point",
        "coordinates": [
          1.2652582,
          45.8445408
        ]
      },
      "properties": {
        "venue_id": "ao-research-icksp-federated-v13-icksp-stg-018-stantoine",
        "name": "Chapelle Saint-Antoine",
        "venue_type": "chapel",
        "country_code": "FR",
        "city": "Limoges",
        "community_id": "ICKSP",
        "precision": "building",
        "geocoding_source": "OSM_NOMINATIM"
      }
    },
    {
      "type": "Feature",
      "geometry": {
        "type": "Point",
        "coordinates": [
          1.3004483,
          45.7807402
        ]
      },
      "properties": {
        "venue_id": "ao-research-icksp-federated-v13-icksp-stg-018-stloup",
        "name": "Chapelle Saint-Loup",
        "venue_type": "school_chapel",
        "country_code": "FR",
        "city": "Le Vigen",
        "community_id": "ICKSP",
        "precision": "street",
        "geocoding_source": "OSM_NOMINATIM"
      }
    },
    {
      "type": "Feature",
      "geometry": {
        "type": "Point",
        "coordinates": [
          2.6400937,
          49.1109297
        ]
      },
      "properties": {
        "venue_id": "ao-research-icksp-federated-v13-icksp-stg-019",
        "name": "Loisy",
        "venue_type": "retreat_house",
        "country_code": "FR",
        "city": "Ver-sur-Launette",
        "community_id": "ICKSP",
        "precision": "locality",
        "geocoding_source": "OSM_NOMINATIM"
      }
    },
    {
      "type": "Feature",
      "geometry": {
        "type": "Point",
        "coordinates": [
          2.7372678,
          49.1294508
        ]
      },
      "properties": {
        "venue_id": "ao-research-icksp-federated-v13-icksp-stg-020",
        "name": "Maison provinciale Saint-Joseph",
        "venue_type": "residence",
        "country_code": "FR",
        "city": "Montagny-Sainte-Félicité",
        "community_id": "ICKSP",
        "precision": "street",
        "geocoding_source": "OSM_NOMINATIM"
      }
    },
    {
      "type": "Feature",
      "geometry": {
        "type": "Point",
        "coordinates": [
          1.4508775,
          44.5792113
        ]
      },
      "properties": {
        "venue_id": "ao-research-icksp-federated-v13-icksp-stg-021",
        "name": "Église Saint-Caprais",
        "venue_type": "church",
        "country_code": "FR",
        "city": "Mechmont",
        "community_id": "ICKSP",
        "precision": "building",
        "geocoding_source": "OSM_NOMINATIM"
      }
    },
    {
      "type": "Feature",
      "geometry": {
        "type": "Point",
        "coordinates": [
          1.3205768,
          44.0185144
        ]
      },
      "properties": {
        "venue_id": "ao-research-icksp-federated-v13-icksp-stg-022",
        "name": "Église de la Nativité de Notre-Dame",
        "venue_type": "church",
        "country_code": "FR",
        "city": "Montauban",
        "community_id": "ICKSP",
        "precision": "street",
        "geocoding_source": "OSM_NOMINATIM"
      }
    },
    {
      "type": "Feature",
      "geometry": {
        "type": "Point",
        "coordinates": [
          3.8706607,
          43.6094103
        ]
      },
      "properties": {
        "venue_id": "ao-research-icksp-federated-v13-icksp-stg-023-steulalie",
        "name": "Église Sainte-Eulalie",
        "venue_type": "church",
        "country_code": "FR",
        "city": "Montpellier",
        "community_id": "ICKSP",
        "precision": "address",
        "geocoding_source": "OSM_NOMINATIM"
      }
    },
    {
      "type": "Feature",
      "geometry": {
        "type": "Point",
        "coordinates": [
          3.8792821,
          43.6096532
        ]
      },
      "properties": {
        "venue_id": "ao-research-icksp-federated-v13-icksp-stg-023-penitents",
        "name": "Chapelle des Pénitents Blancs",
        "venue_type": "chapel",
        "country_code": "FR",
        "city": "Montpellier",
        "community_id": "ICKSP",
        "precision": "address",
        "geocoding_source": "OSM_NOMINATIM"
      }
    },
    {
      "type": "Feature",
      "geometry": {
        "type": "Point",
        "coordinates": [
          3.3171339,
          46.5306207
        ]
      },
      "properties": {
        "venue_id": "ao-research-icksp-federated-v13-icksp-stg-024",
        "name": "Église du Sacré-Cœur",
        "venue_type": "church",
        "country_code": "FR",
        "city": "Bressolles",
        "community_id": "ICKSP",
        "precision": "address",
        "geocoding_source": "OSM_NOMINATIM"
      }
    },
    {
      "type": "Feature",
      "geometry": {
        "type": "Point",
        "coordinates": [
          7.2773704,
          43.6967691
        ]
      },
      "properties": {
        "venue_id": "ao-research-icksp-federated-v13-icksp-stg-025-gesu",
        "name": "Église Saint-Jacques-le-Majeur (Gesù)",
        "venue_type": "church",
        "country_code": "FR",
        "city": "Nice",
        "community_id": "ICKSP",
        "precision": "building",
        "geocoding_source": "OSM_NOMINATIM"
      }
    },
    {
      "type": "Feature",
      "geometry": {
        "type": "Point",
        "coordinates": [
          4.3590165,
          43.8379361
        ]
      },
      "properties": {
        "venue_id": "ao-research-icksp-federated-v13-icksp-stg-026",
        "name": "Chapelle Sainte-Eugénie",
        "venue_type": "chapel",
        "country_code": "FR",
        "city": "Nîmes",
        "community_id": "ICKSP",
        "precision": "street",
        "geocoding_source": "OSM_NOMINATIM"
      }
    },
    {
      "type": "Feature",
      "geometry": {
        "type": "Point",
        "coordinates": [
          1.900692,
          47.898581
        ]
      },
      "properties": {
        "venue_id": "ao-research-icksp-federated-v13-icksp-stg-027-recouvrance",
        "name": "Église Notre-Dame-de-Recouvrance",
        "venue_type": "church",
        "country_code": "FR",
        "city": "Orléans",
        "community_id": "ICKSP",
        "precision": "address",
        "geocoding_source": "OSM_NOMINATIM"
      }
    },
    {
      "type": "Feature",
      "geometry": {
        "type": "Point",
        "coordinates": [
          2.2656878,
          47.8564875
        ]
      },
      "properties": {
        "venue_id": "ao-research-icksp-federated-v13-icksp-stg-027-stmartin",
        "name": "Église Saint-Martin",
        "venue_type": "church",
        "country_code": "FR",
        "city": "Saint-Martin-d'Abbat",
        "community_id": "ICKSP",
        "precision": "building",
        "geocoding_source": "OSM_NOMINATIM"
      }
    },
    {
      "type": "Feature",
      "geometry": {
        "type": "Point",
        "coordinates": [
          2.7881248,
          47.9529697
        ]
      },
      "properties": {
        "venue_id": "ao-research-icksp-federated-v13-icksp-stg-027-conflans",
        "name": "Église Saint-Pierre-ès-Liens",
        "venue_type": "church",
        "country_code": "FR",
        "city": "Conflans-sur-Loing",
        "community_id": "ICKSP",
        "precision": "building",
        "geocoding_source": "OSM_NOMINATIM"
      }
    },
    {
      "type": "Feature",
      "geometry": {
        "type": "Point",
        "coordinates": [
          2.320041,
          48.8588897
        ]
      },
      "properties": {
        "venue_id": "ao-research-icksp-federated-v13-icksp-stg-028",
        "name": "Paris",
        "venue_type": "other",
        "country_code": "FR",
        "city": "Paris",
        "community_id": "ICKSP",
        "precision": "locality",
        "geocoding_source": "OSM_NOMINATIM"
      }
    },
    {
      "type": "Feature",
      "geometry": {
        "type": "Point",
        "coordinates": [
          2.1046247,
          48.8762871
        ]
      },
      "properties": {
        "venue_id": "ao-research-icksp-federated-v13-icksp-stg-029-stlouis",
        "name": "Église Saint-Louis",
        "venue_type": "church",
        "country_code": "FR",
        "city": "Le Port-Marly",
        "community_id": "ICKSP",
        "precision": "street",
        "geocoding_source": "OSM_NOMINATIM"
      }
    },
    {
      "type": "Feature",
      "geometry": {
        "type": "Point",
        "coordinates": [
          2.101802,
          48.872289
        ]
      },
      "properties": {
        "venue_id": "ao-research-icksp-federated-v13-icksp-stg-029-stfrancois",
        "name": "Chapelle Saint-François-de-Sales",
        "venue_type": "chapel",
        "country_code": "FR",
        "city": "Marly-le-Roi",
        "community_id": "ICKSP",
        "precision": "address",
        "geocoding_source": "OSM_NOMINATIM"
      }
    },
    {
      "type": "Feature",
      "geometry": {
        "type": "Point",
        "coordinates": [
          4.0441717,
          49.266241
        ]
      },
      "properties": {
        "venue_id": "ao-research-icksp-federated-v13-icksp-stg-030",
        "name": "Église Sainte-Jeanne-d'Arc",
        "venue_type": "church",
        "country_code": "FR",
        "city": "Reims",
        "community_id": "ICKSP",
        "precision": "building",
        "geocoding_source": "OSM_NOMINATIM"
      }
    },
    {
      "type": "Feature",
      "geometry": {
        "type": "Point",
        "coordinates": [
          -1.6927547,
          48.1049076
        ]
      },
      "properties": {
        "venue_id": "ao-research-icksp-federated-v13-icksp-stg-031",
        "name": "Chapelle Saint-François",
        "venue_type": "chapel",
        "country_code": "FR",
        "city": "Rennes",
        "community_id": "ICKSP",
        "precision": "address",
        "geocoding_source": "OSM_NOMINATIM"
      }
    },
    {
      "type": "Feature",
      "geometry": {
        "type": "Point",
        "coordinates": [
          1.091263,
          49.446181
        ]
      },
      "properties": {
        "venue_id": "ao-research-icksp-federated-v13-icksp-stg-032",
        "name": "Église Saint-Patrice",
        "venue_type": "church",
        "country_code": "FR",
        "city": "Rouen",
        "community_id": "ICKSP",
        "precision": "address",
        "geocoding_source": "OSM_NOMINATIM"
      }
    },
    {
      "type": "Feature",
      "geometry": {
        "type": "Point",
        "coordinates": [
          -1.0991354,
          45.6768775
        ]
      },
      "properties": {
        "venue_id": "ao-research-icksp-federated-v13-icksp-stg-033",
        "name": "Église Saint-Augustin",
        "venue_type": "church",
        "country_code": "FR",
        "city": "Saint-Augustin",
        "community_id": "ICKSP",
        "precision": "building",
        "geocoding_source": "OSM_NOMINATIM"
      }
    },
    {
      "type": "Feature",
      "geometry": {
        "type": "Point",
        "coordinates": [
          -2.7550884,
          48.4981958
        ]
      },
      "properties": {
        "venue_id": "ao-research-icksp-federated-v13-icksp-stg-034",
        "name": "Église Saint-Vincent-de-Paul",
        "venue_type": "church",
        "country_code": "FR",
        "city": "Saint-Brieuc",
        "community_id": "ICKSP",
        "precision": "building",
        "geocoding_source": "OSM_NOMINATIM"
      }
    },
    {
      "type": "Feature",
      "geometry": {
        "type": "Point",
        "coordinates": [
          1.4458534,
          43.6014865
        ]
      },
      "properties": {
        "venue_id": "ao-research-icksp-federated-v13-icksp-stg-035",
        "name": "Chapelle Saint-Jean-Baptiste",
        "venue_type": "chapel",
        "country_code": "FR",
        "city": "Toulouse",
        "community_id": "ICKSP",
        "precision": "address",
        "geocoding_source": "OSM_NOMINATIM"
      }
    },
    {
      "type": "Feature",
      "geometry": {
        "type": "Point",
        "coordinates": [
          4.0755933,
          48.2989367
        ]
      },
      "properties": {
        "venue_id": "ao-research-icksp-federated-v13-icksp-stg-036",
        "name": "Église Saint-Rémy",
        "venue_type": "church",
        "country_code": "FR",
        "city": "Troyes",
        "community_id": "ICKSP",
        "precision": "street",
        "geocoding_source": "OSM_NOMINATIM"
      }
    },
    {
      "type": "Feature",
      "geometry": {
        "type": "Point",
        "coordinates": [
          -1.4666261,
          49.5021325
        ]
      },
      "properties": {
        "venue_id": "ao-research-icksp-federated-v13-icksp-stg-037",
        "name": "Chapelle de l'hôpital",
        "venue_type": "chapel",
        "country_code": "FR",
        "city": "Valognes",
        "community_id": "ICKSP",
        "precision": "street",
        "geocoding_source": "OSM_NOMINATIM"
      }
    },
    {
      "type": "Feature",
      "geometry": {
        "type": "Point",
        "coordinates": [
          3.4237185,
          46.124235
        ]
      },
      "properties": {
        "venue_id": "ao-research-icksp-federated-v13-icksp-stg-038",
        "name": "Église Saint-Louis",
        "venue_type": "church",
        "country_code": "FR",
        "city": "Vichy",
        "community_id": "ICKSP",
        "precision": "building",
        "geocoding_source": "OSM_NOMINATIM"
      }
    },
    {
      "type": "Feature",
      "geometry": {
        "type": "Point",
        "coordinates": [
          -110.974847,
          32.2228765
        ]
      },
      "properties": {
        "venue_id": "ao-research-icksp-federated-v13-icksp-stg-040",
        "name": "St. Gianna Oratory",
        "venue_type": "oratory",
        "country_code": "US",
        "city": "Tucson, AZ",
        "community_id": "ICKSP",
        "precision": "locality",
        "geocoding_source": "OSM_NOMINATIM"
      }
    },
    {
      "type": "Feature",
      "geometry": {
        "type": "Point",
        "coordinates": [
          -73.1887863,
          41.1792695
        ]
      },
      "properties": {
        "venue_id": "ao-research-icksp-federated-v13-icksp-stg-043",
        "name": "Sts. Cyril & Methodius",
        "venue_type": "other",
        "country_code": "US",
        "city": "Bridgeport, CT",
        "community_id": "ICKSP",
        "precision": "locality",
        "geocoding_source": "OSM_NOMINATIM"
      }
    },
    {
      "type": "Feature",
      "geometry": {
        "type": "Point",
        "coordinates": [
          -83.035697,
          42.3454426
        ]
      },
      "properties": {
        "venue_id": "ao-research-icksp-federated-v13-icksp-stg-054",
        "name": "St. Joseph Shrine",
        "venue_type": "church",
        "country_code": "US",
        "city": "Detroit, MI",
        "community_id": "ICKSP",
        "precision": "building",
        "geocoding_source": "OSM_NOMINATIM"
      }
    },
    {
      "type": "Feature",
      "geometry": {
        "type": "Point",
        "coordinates": [
          -88.276413,
          42.6801053
        ]
      },
      "properties": {
        "venue_id": "ao-research-icksp-federated-v13-icksp-stg-062",
        "name": "Sacred Heart Retreat Center",
        "venue_type": "retreat_house",
        "country_code": "US",
        "city": "Burlington, WI",
        "community_id": "ICKSP",
        "precision": "locality",
        "geocoding_source": "OSM_NOMINATIM"
      }
    },
    {
      "type": "Feature",
      "geometry": {
        "type": "Point",
        "coordinates": [
          6.9462957,
          44.4812381
        ]
      },
      "properties": {
        "venue_id": "ao-research-icksp-federated-v13-icksp-stg-067",
        "name": "Casa alpina San Giovanni Bosco",
        "venue_type": "residence",
        "country_code": "IT",
        "city": "Acceglio",
        "community_id": "ICKSP",
        "precision": "locality",
        "geocoding_source": "OSM_NOMINATIM"
      }
    },
    {
      "type": "Feature",
      "geometry": {
        "type": "Point",
        "coordinates": [
          18.1657592,
          40.3514693
        ]
      },
      "properties": {
        "venue_id": "ao-research-icksp-federated-v13-icksp-stg-070-lecce",
        "name": "Chiesa di Sant’Anna",
        "venue_type": "church",
        "country_code": "IT",
        "city": "Lecce",
        "community_id": "ICKSP",
        "precision": "address",
        "geocoding_source": "OSM_NOMINATIM"
      }
    },
    {
      "type": "Feature",
      "geometry": {
        "type": "Point",
        "coordinates": [
          18.0459697,
          40.3517254
        ]
      },
      "properties": {
        "venue_id": "ao-research-icksp-federated-v13-icksp-stg-070-carmiano",
        "name": "Chiesa del Cuore Immacolato di Maria (Li Sala)",
        "venue_type": "church",
        "country_code": "IT",
        "city": "Carmiano",
        "community_id": "ICKSP",
        "precision": "street",
        "geocoding_source": "OSM_NOMINATIM"
      }
    },
    {
      "type": "Feature",
      "geometry": {
        "type": "Point",
        "coordinates": [
          14.2536105,
          40.8543998
        ]
      },
      "properties": {
        "venue_id": "ao-research-icksp-federated-v13-icksp-stg-072-rosariello",
        "name": "Chiesa Rettoria del Rosariello",
        "venue_type": "church",
        "country_code": "IT",
        "city": "Napoli",
        "community_id": "ICKSP",
        "precision": "street",
        "geocoding_source": "OSM_NOMINATIM"
      }
    },
    {
      "type": "Feature",
      "geometry": {
        "type": "Point",
        "coordinates": [
          14.2754121,
          40.8485748
        ]
      },
      "properties": {
        "venue_id": "ao-research-icksp-federated-v13-icksp-stg-072-santanna",
        "name": "Chiesa di Sant’Anna alle Paludi",
        "venue_type": "church",
        "country_code": "IT",
        "city": "Napoli",
        "community_id": "ICKSP",
        "precision": "street",
        "geocoding_source": "OSM_NOMINATIM"
      }
    },
    {
      "type": "Feature",
      "geometry": {
        "type": "Point",
        "coordinates": [
          9.695123,
          45.0506139
        ]
      },
      "properties": {
        "venue_id": "ao-research-icksp-federated-v13-icksp-stg-073",
        "name": "Chiesa di San Giorgio in Sopramuro",
        "venue_type": "church",
        "country_code": "IT",
        "city": "Piacenza",
        "community_id": "ICKSP",
        "precision": "address",
        "geocoding_source": "OSM_NOMINATIM"
      }
    },
    {
      "type": "Feature",
      "geometry": {
        "type": "Point",
        "coordinates": [
          -2.7157094,
          53.763183
        ]
      },
      "properties": {
        "venue_id": "ao-research-icksp-federated-v13-icksp-stg-077",
        "name": "Shrine Church of St Walburge",
        "venue_type": "church",
        "country_code": "GB",
        "city": "Preston",
        "community_id": "ICKSP",
        "precision": "street",
        "geocoding_source": "OSM_NOMINATIM"
      }
    },
    {
      "type": "Feature",
      "geometry": {
        "type": "Point",
        "coordinates": [
          -2.7299224,
          52.710523
        ]
      },
      "properties": {
        "venue_id": "ao-research-icksp-federated-v13-icksp-stg-078",
        "name": "St Winefride’s Church",
        "venue_type": "church",
        "country_code": "GB",
        "city": "Shrewsbury",
        "community_id": "ICKSP",
        "precision": "street",
        "geocoding_source": "OSM_NOMINATIM"
      }
    },
    {
      "type": "Feature",
      "geometry": {
        "type": "Point",
        "coordinates": [
          -3.5531028,
          50.4699243
        ]
      },
      "properties": {
        "venue_id": "ao-research-icksp-federated-v13-icksp-stg-080-holyangels",
        "name": "Holy Angels Church",
        "venue_type": "church",
        "country_code": "GB",
        "city": "Torquay",
        "community_id": "ICKSP",
        "precision": "building",
        "geocoding_source": "OSM_NOMINATIM"
      }
    },
    {
      "type": "Feature",
      "geometry": {
        "type": "Point",
        "coordinates": [
          -4.1377289,
          50.3890945
        ]
      },
      "properties": {
        "venue_id": "ao-research-icksp-federated-v13-icksp-stg-080-stedward",
        "name": "St Edward the Confessor Church",
        "venue_type": "church",
        "country_code": "GB",
        "city": "Plymouth",
        "community_id": "ICKSP",
        "precision": "building",
        "geocoding_source": "OSM_NOMINATIM"
      }
    },
    {
      "type": "Feature",
      "geometry": {
        "type": "Point",
        "coordinates": [
          -2.6992717,
          53.7593363
        ]
      },
      "properties": {
        "venue_id": "ao-research-icksp-federated-v13-icksp-stg-081",
        "name": "Sisters Adorers of the Royal Heart of Jesus",
        "venue_type": "residence",
        "country_code": "GB",
        "city": "Preston",
        "community_id": "ICKSP",
        "precision": "locality",
        "geocoding_source": "OSM_NOMINATIM"
      }
    },
    {
      "type": "Feature",
      "geometry": {
        "type": "Point",
        "coordinates": [
          17.9232186,
          59.2863342
        ]
      },
      "properties": {
        "venue_id": "ao-research-icksp-federated-v13-icksp-stg-082",
        "name": "St Maroun Church",
        "venue_type": "church",
        "country_code": "SE",
        "city": "Skärholmen",
        "community_id": "ICKSP",
        "precision": "building",
        "geocoding_source": "OSM_NOMINATIM"
      }
    },
    {
      "type": "Feature",
      "geometry": {
        "type": "Point",
        "coordinates": [
          -3.8533302,
          40.9142293
        ]
      },
      "properties": {
        "venue_id": "ao-research-icksp-federated-v13-icksp-stg-083",
        "name": "Iglesia Nuestra Señora de la Paz",
        "venue_type": "church",
        "country_code": "ES",
        "city": "Madrid",
        "community_id": "ICKSP",
        "precision": "building",
        "geocoding_source": "OSM_NOMINATIM"
      }
    },
    {
      "type": "Feature",
      "geometry": {
        "type": "Point",
        "coordinates": [
          -3.363981,
          40.481954
        ]
      },
      "properties": {
        "venue_id": "ao-research-icksp-federated-v13-icksp-stg-084",
        "name": "Iglesia de las Carmelitas Descalzas de la Purísima Concepción",
        "venue_type": "church",
        "country_code": "ES",
        "city": "Alcalá de Henares",
        "community_id": "ICKSP",
        "precision": "locality",
        "geocoding_source": "OSM_NOMINATIM"
      }
    },
    {
      "type": "Feature",
      "geometry": {
        "type": "Point",
        "coordinates": [
          -3.363981,
          40.481954
        ]
      },
      "properties": {
        "venue_id": "ao-research-icksp-federated-v13-icksp-stg-085",
        "name": "Iglesia de las Concepcionistas Franciscanas",
        "venue_type": "church",
        "country_code": "ES",
        "city": "Alcalá de Henares",
        "community_id": "ICKSP",
        "precision": "locality",
        "geocoding_source": "OSM_NOMINATIM"
      }
    },
    {
      "type": "Feature",
      "geometry": {
        "type": "Point",
        "coordinates": [
          -6.2252702,
          36.6004006
        ]
      },
      "properties": {
        "venue_id": "ao-research-icksp-federated-v13-icksp-stg-086",
        "name": "Convento de las Concepcionistas",
        "venue_type": "convent",
        "country_code": "ES",
        "city": "El Puerto de Santa María",
        "community_id": "ICKSP",
        "precision": "locality",
        "geocoding_source": "OSM_NOMINATIM"
      }
    },
    {
      "type": "Feature",
      "geometry": {
        "type": "Point",
        "coordinates": [
          -6.2252702,
          36.6004006
        ]
      },
      "properties": {
        "venue_id": "ao-research-icksp-federated-v13-icksp-stg-087",
        "name": "Oratorio de la Inmaculada Concepción",
        "venue_type": "oratory",
        "country_code": "ES",
        "city": "El Puerto de Santa María",
        "community_id": "ICKSP",
        "precision": "locality",
        "geocoding_source": "OSM_NOMINATIM"
      }
    },
    {
      "type": "Feature",
      "geometry": {
        "type": "Point",
        "coordinates": [
          -6.2997983,
          36.5328564
        ]
      },
      "properties": {
        "venue_id": "ao-research-icksp-federated-v13-icksp-stg-088",
        "name": "Oratorio de San Felipe Neri",
        "venue_type": "oratory",
        "country_code": "ES",
        "city": "Cádiz",
        "community_id": "ICKSP",
        "precision": "building",
        "geocoding_source": "OSM_NOMINATIM"
      }
    },
    {
      "type": "Feature",
      "geometry": {
        "type": "Point",
        "coordinates": [
          -3.7331808,
          40.3070639
        ]
      },
      "properties": {
        "venue_id": "ao-research-icksp-federated-v13-icksp-stg-089",
        "name": "Convento del Sagrado Corazón y Nuestra Señora de los Ángeles",
        "venue_type": "convent",
        "country_code": "ES",
        "city": "Getafe",
        "community_id": "ICKSP",
        "precision": "locality",
        "geocoding_source": "OSM_NOMINATIM"
      }
    },
    {
      "type": "Feature",
      "geometry": {
        "type": "Point",
        "coordinates": [
          -4.1038694,
          40.8752164
        ]
      },
      "properties": {
        "venue_id": "ao-research-icksp-federated-v13-icksp-stg-090",
        "name": "Iglesia de San Sebastián",
        "venue_type": "church",
        "country_code": "ES",
        "city": "Segovia",
        "community_id": "ICKSP",
        "precision": "building",
        "geocoding_source": "OSM_NOMINATIM"
      }
    },
    {
      "type": "Feature",
      "geometry": {
        "type": "Point",
        "coordinates": [
          -4.7259906,
          41.6200024
        ]
      },
      "properties": {
        "venue_id": "ao-research-icksp-federated-v13-icksp-stg-091",
        "name": "Convento de las Dominicas de Porta Coeli",
        "venue_type": "convent",
        "country_code": "ES",
        "city": "Valladolid",
        "community_id": "ICKSP",
        "precision": "locality",
        "geocoding_source": "OSM_NOMINATIM"
      }
    },
    {
      "type": "Feature",
      "geometry": {
        "type": "Point",
        "coordinates": [
          57.5245607,
          -20.3195886
        ]
      },
      "properties": {
        "venue_id": "ao-research-icksp-federated-v13-icksp-stg-093",
        "name": "Église Sainte-Thérèse",
        "venue_type": "church",
        "country_code": "MU",
        "city": "Curepipe",
        "community_id": "ICKSP",
        "precision": "building",
        "geocoding_source": "OSM_NOMINATIM"
      }
    },
    {
      "type": "Feature",
      "geometry": {
        "type": "Point",
        "coordinates": [
          57.5020691,
          -20.169016
        ]
      },
      "properties": {
        "venue_id": "ao-research-icksp-federated-v13-icksp-stg-096",
        "name": "Chapelle Saint-Jean-de-Dieu, Hôpital Jeetoo",
        "venue_type": "chapel",
        "country_code": "MU",
        "city": "Port-Louis",
        "community_id": "ICKSP",
        "precision": "building",
        "geocoding_source": "OSM_NOMINATIM"
      }
    },
    {
      "type": "Feature",
      "geometry": {
        "type": "Point",
        "coordinates": [
          4.3955981,
          50.8006663
        ]
      },
      "properties": {
        "venue_id": "ao-research-icksp-federated-v13-icksp-stg-097",
        "name": "Maison Saint-Joseph",
        "venue_type": "residence",
        "country_code": "BE",
        "city": "Bruxelles",
        "community_id": "ICKSP",
        "precision": "building",
        "geocoding_source": "OSM_NOMINATIM"
      }
    },
    {
      "type": "Feature",
      "geometry": {
        "type": "Point",
        "coordinates": [
          4.3510915,
          50.8551025
        ]
      },
      "properties": {
        "venue_id": "ao-research-icksp-federated-v13-icksp-stg-099",
        "name": "Brussels International Catholic School - chapelle",
        "venue_type": "school_chapel",
        "country_code": "BE",
        "city": "Bruxelles",
        "community_id": "ICKSP",
        "precision": "locality",
        "geocoding_source": "OSM_NOMINATIM"
      }
    },
    {
      "type": "Feature",
      "geometry": {
        "type": "Point",
        "coordinates": [
          3.5450717,
          50.5357494
        ]
      },
      "properties": {
        "venue_id": "ao-research-icksp-federated-v13-icksp-stg-101",
        "name": "Chapelle Notre-Dame-de-l'Espérance",
        "venue_type": "chapel",
        "country_code": "BE",
        "city": "Brasménil",
        "community_id": "ICKSP",
        "precision": "building",
        "geocoding_source": "OSM_NOMINATIM"
      }
    },
    {
      "type": "Feature",
      "geometry": {
        "type": "Point",
        "coordinates": [
          9.4283078,
          0.4295608
        ]
      },
      "properties": {
        "venue_id": "ao-research-icksp-federated-v13-icksp-stg-104",
        "name": "École Notre-Dame-d’Ibékélia",
        "venue_type": "school_chapel",
        "country_code": "GA",
        "city": "Libreville",
        "community_id": "ICKSP",
        "precision": "building",
        "geocoding_source": "OSM_NOMINATIM"
      }
    },
    {
      "type": "Feature",
      "geometry": {
        "type": "Point",
        "coordinates": [
          11.9104242,
          -0.0201273
        ]
      },
      "properties": {
        "venue_id": "ao-research-icksp-federated-v13-icksp-stg-106",
        "name": "Chapelle du Cœur-Immaculé-de-Marie",
        "venue_type": "chapel",
        "country_code": "GA",
        "city": "Bissobilam",
        "community_id": "ICKSP",
        "precision": "locality",
        "geocoding_source": "OSM_NOMINATIM"
      }
    },
    {
      "type": "Feature",
      "geometry": {
        "type": "Point",
        "coordinates": [
          11.058713,
          -1.8627018
        ]
      },
      "properties": {
        "venue_id": "ao-research-icksp-federated-v13-icksp-stg-108",
        "name": "Chapelle Notre-Dame-du-Sacré-Cœur",
        "venue_type": "chapel",
        "country_code": "GA",
        "city": "Mouila",
        "community_id": "ICKSP",
        "precision": "locality",
        "geocoding_source": "OSM_NOMINATIM"
      }
    },
    {
      "type": "Feature",
      "geometry": {
        "type": "Point",
        "coordinates": [
          11.058713,
          -1.8627018
        ]
      },
      "properties": {
        "venue_id": "ao-research-icksp-federated-v13-icksp-stg-109",
        "name": "Chapelle Sainte-Thérèse-de-l’Enfant-Jésus",
        "venue_type": "chapel",
        "country_code": "GA",
        "city": "Mouila",
        "community_id": "ICKSP",
        "precision": "locality",
        "geocoding_source": "OSM_NOMINATIM"
      }
    },
    {
      "type": "Feature",
      "geometry": {
        "type": "Point",
        "coordinates": [
          11.058713,
          -1.8627018
        ]
      },
      "properties": {
        "venue_id": "ao-research-icksp-federated-v13-icksp-stg-110",
        "name": "École Saint-François-de-Sales",
        "venue_type": "school_chapel",
        "country_code": "GA",
        "city": "Mouila",
        "community_id": "ICKSP",
        "precision": "locality",
        "geocoding_source": "OSM_NOMINATIM"
      }
    },
    {
      "type": "Feature",
      "geometry": {
        "type": "Point",
        "coordinates": [
          11.058713,
          -1.8627018
        ]
      },
      "properties": {
        "venue_id": "ao-research-icksp-federated-v13-icksp-stg-111",
        "name": "Chapelle de l’École Saint-François-de-Sales",
        "venue_type": "school_chapel",
        "country_code": "GA",
        "city": "Mouila",
        "community_id": "ICKSP",
        "precision": "locality",
        "geocoding_source": "OSM_NOMINATIM"
      }
    },
    {
      "type": "Feature",
      "geometry": {
        "type": "Point",
        "coordinates": [
          12.6789679,
          48.2279997
        ]
      },
      "properties": {
        "venue_id": "ao-research-icksp-federated-v13-icksp-stg-112",
        "name": "Friedhofskirche St. Michael",
        "venue_type": "church",
        "country_code": "DE",
        "city": "Altötting",
        "community_id": "ICKSP",
        "precision": "building",
        "geocoding_source": "OSM_NOMINATIM"
      }
    },
    {
      "type": "Feature",
      "geometry": {
        "type": "Point",
        "coordinates": [
          12.8980967,
          47.7194842
        ]
      },
      "properties": {
        "venue_id": "ao-research-icksp-federated-v13-icksp-stg-113",
        "name": "Haus Herz Jesu",
        "venue_type": "residence",
        "country_code": "DE",
        "city": "Bayerisch Gmain",
        "community_id": "ICKSP",
        "precision": "locality",
        "geocoding_source": "OSM_NOMINATIM"
      }
    },
    {
      "type": "Feature",
      "geometry": {
        "type": "Point",
        "coordinates": [
          12.8764519,
          47.7229883
        ]
      },
      "properties": {
        "venue_id": "ao-research-icksp-federated-v13-icksp-stg-114",
        "name": "Kirche St. Ägidi",
        "venue_type": "church",
        "country_code": "DE",
        "city": "Bad Reichenhall",
        "community_id": "ICKSP",
        "precision": "building",
        "geocoding_source": "OSM_NOMINATIM"
      }
    },
    {
      "type": "Feature",
      "geometry": {
        "type": "Point",
        "coordinates": [
          12.6481879,
          47.8677424
        ]
      },
      "properties": {
        "venue_id": "ao-research-icksp-federated-v13-icksp-stg-115",
        "name": "Salinenkapelle St. Rupert und Maximilian",
        "venue_type": "chapel",
        "country_code": "DE",
        "city": "Traunstein",
        "community_id": "ICKSP",
        "precision": "building",
        "geocoding_source": "OSM_NOMINATIM"
      }
    },
    {
      "type": "Feature",
      "geometry": {
        "type": "Point",
        "coordinates": [
          7.2784795,
          50.1252933
        ]
      },
      "properties": {
        "venue_id": "ao-research-icksp-federated-v13-icksp-stg-116",
        "name": "Kloster Maria Engelport",
        "venue_type": "monastery",
        "country_code": "DE",
        "city": "Treis-Karden",
        "community_id": "ICKSP",
        "precision": "building",
        "geocoding_source": "OSM_NOMINATIM"
      }
    },
    {
      "type": "Feature",
      "geometry": {
        "type": "Point",
        "coordinates": [
          7.6034734,
          50.3435606
        ]
      },
      "properties": {
        "venue_id": "ao-research-icksp-federated-v13-icksp-stg-117",
        "name": "Kloster Bethlehem",
        "venue_type": "monastery",
        "country_code": "DE",
        "city": "Koblenz",
        "community_id": "ICKSP",
        "precision": "building",
        "geocoding_source": "OSM_NOMINATIM"
      }
    },
    {
      "type": "Feature",
      "geometry": {
        "type": "Point",
        "coordinates": [
          6.9048077,
          49.3000518
        ]
      },
      "properties": {
        "venue_id": "ao-research-icksp-federated-v13-icksp-stg-118",
        "name": "Katholische Kirche St. Martin",
        "venue_type": "church",
        "country_code": "DE",
        "city": "Köllerbach",
        "community_id": "ICKSP",
        "precision": "street",
        "geocoding_source": "OSM_NOMINATIM"
      }
    },
    {
      "type": "Feature",
      "geometry": {
        "type": "Point",
        "coordinates": [
          6.6438465,
          49.7639707
        ]
      },
      "properties": {
        "venue_id": "ao-research-icksp-federated-v13-icksp-stg-119",
        "name": "St. Martin",
        "venue_type": "church",
        "country_code": "DE",
        "city": "Trier",
        "community_id": "ICKSP",
        "precision": "building",
        "geocoding_source": "OSM_NOMINATIM"
      }
    },
    {
      "type": "Feature",
      "geometry": {
        "type": "Point",
        "coordinates": [
          6.9514816,
          47.2291347
        ]
      },
      "properties": {
        "venue_id": "ao-research-icksp-federated-v13-icksp-stg-121",
        "name": "Haus vom Eucharistischen Herzen Jesu",
        "venue_type": "residence",
        "country_code": "CH",
        "city": "Le Noirmont",
        "community_id": "ICKSP",
        "precision": "street",
        "geocoding_source": "OSM_NOMINATIM"
      }
    },
    {
      "type": "Feature",
      "geometry": {
        "type": "Point",
        "coordinates": [
          -8.6324277,
          52.6590929
        ]
      },
      "properties": {
        "venue_id": "ao-research-icksp-federated-v13-icksp-stg-122",
        "name": "Sacred Heart Church",
        "venue_type": "church",
        "country_code": "IE",
        "city": "Limerick",
        "community_id": "ICKSP",
        "precision": "building",
        "geocoding_source": "OSM_NOMINATIM"
      }
    },
    {
      "type": "Feature",
      "geometry": {
        "type": "Point",
        "coordinates": [
          -5.9379914,
          54.6266069
        ]
      },
      "properties": {
        "venue_id": "ao-research-icksp-federated-v13-icksp-stg-123",
        "name": "Church of the Immaculate Heart of Mary",
        "venue_type": "church",
        "country_code": "GB",
        "city": "Belfast, Northern Ireland",
        "community_id": "ICKSP",
        "precision": "street",
        "geocoding_source": "OSM_NOMINATIM"
      }
    },
    {
      "type": "Feature",
      "geometry": {
        "type": "Point",
        "coordinates": [
          -9.0644409,
          53.2706169
        ]
      },
      "properties": {
        "venue_id": "ao-research-icksp-federated-v13-icksp-stg-125",
        "name": "St. Mary's College Chapel",
        "venue_type": "chapel",
        "country_code": "IE",
        "city": "Galway",
        "community_id": "ICKSP",
        "precision": "street",
        "geocoding_source": "OSM_NOMINATIM"
      }
    },
    {
      "type": "Feature",
      "geometry": {
        "type": "Point",
        "coordinates": [
          8.6127404,
          44.9115501
        ]
      },
      "properties": {
        "venue_id": "ao-research-icksp-federated-v13-icksp-it-2026-alessandria",
        "name": "Chiesa di San Giovannino",
        "venue_type": "church",
        "country_code": "IT",
        "city": "Alessandria",
        "community_id": "ICKSP",
        "precision": "street",
        "geocoding_source": "OSM_NOMINATIM"
      }
    },
    {
      "type": "Feature",
      "geometry": {
        "type": "Point",
        "coordinates": [
          10.5074981,
          43.8412351
        ]
      },
      "properties": {
        "venue_id": "ao-research-icksp-federated-v13-icksp-it-2026-lucca",
        "name": "Chiesa di Santa Maria della Rosa",
        "venue_type": "church",
        "country_code": "IT",
        "city": "Lucca",
        "community_id": "ICKSP",
        "precision": "street",
        "geocoding_source": "OSM_NOMINATIM"
      }
    },
    {
      "type": "Feature",
      "geometry": {
        "type": "Point",
        "coordinates": [
          12.1176131,
          42.7211933
        ]
      },
      "properties": {
        "venue_id": "ao-research-icksp-federated-v13-icksp-it-2026-orvieto",
        "name": "Chiesa Santa Maria dei Servi",
        "venue_type": "church",
        "country_code": "IT",
        "city": "Orvieto",
        "community_id": "ICKSP",
        "precision": "street",
        "geocoding_source": "OSM_NOMINATIM"
      }
    },
    {
      "type": "Feature",
      "geometry": {
        "type": "Point",
        "coordinates": [
          10.6214267,
          43.710011
        ]
      },
      "properties": {
        "venue_id": "ao-research-icksp-federated-v13-icksp-it-2026-bientina",
        "name": "Chiesa di San Domenico",
        "venue_type": "church",
        "country_code": "IT",
        "city": "Bientina",
        "community_id": "ICKSP",
        "precision": "street",
        "geocoding_source": "OSM_NOMINATIM"
      }
    },
    {
      "type": "Feature",
      "geometry": {
        "type": "Point",
        "coordinates": [
          10.9133177,
          43.9323562
        ]
      },
      "properties": {
        "venue_id": "ao-research-icksp-federated-v13-icksp-it-2026-pistoia",
        "name": "Chiesa di San Vitale",
        "venue_type": "church",
        "country_code": "IT",
        "city": "Pistoia",
        "community_id": "ICKSP",
        "precision": "street",
        "geocoding_source": "OSM_NOMINATIM"
      }
    }
  ]
}
